[{"OBJECT_NAME":"HULIANWANG DIGUI-80","OBJECT_ID":"2025-187H","EPOCH":"2026-03-09T21:48:31.066560","MEAN_MOTION":13.29341563,"ECCENTRICITY":0.00010367,"INCLINATION":50.0021,"RA_OF_ASC_NODE":201.9725,"ARG_OF_PERICENTER":153.3198,"MEAN_ANOMALY":206.7727,"EPHEMERIS_TYPE":0,"CLASSIFICATION_TYPE":"U","NORAD_CAT_ID":65312,"ELEMENT_SET_NO":999,"REV_AT_EPOCH":2649,"BSTAR":8.5166282e-5,"MEAN_MOTION_DOT":-8.5e-7,"MEAN_MOTION_DDOT":0},{"OBJECT_NAME":"FENGYUN 1C DEB","OBJECT_ID":"1999-025HP","EPOCH":"2026-03-09T13:42:18.760608","MEAN_MOTION":13.70686838,"ECCENTRICITY":0.02233922,"INCLINATION":98.8736,"RA_OF_ASC_NODE":288.6445,"ARG_OF_PERICENTER":255.3371,"MEAN_ANOMALY":161.0636,"EPHEMERIS_TYPE":0,"CLASSIFICATION_TYPE":"U","NORAD_CAT_ID":29917,"ELEMENT_SET_NO":999,"REV_AT_EPOCH":95320,"BSTAR":0.0013508338,"MEAN_MOTION_DOT":1.39e-5,"MEAN_MOTION_DDOT":0}]
